start=new Date('2022-11-15T00:00:00.000Z').valueOf();
sats=[{"ARG_OF_PERICENTER":"50.4404","REV_AT_EPOCH":"8985","ECCENTRICITY":"0.00020390","ELEMENT_SET_NO":"999","CENTER_NAME":"EARTH","OBJECT_NAME":"STARLINK-2489","FILE":"3654975","INCLINATION":"53.0530","PERIAPSIS":"545.807","PERIOD":"95.592","GP_ID":"217738811","MEAN_ELEMENT_THEORY":"SGP4","RCS_SIZE":"LARGE","MEAN_MOTION_DDOT":"0.0000000000000","EPOCH":"2022-11-14T09:59:34.807776","TLE_LINE1":"1 48146U 21027BG  22318.41637509  .00000691  00000-0  65292-4 0  9990","MEAN_ANOMALY":"309.6765","SEMIMAJOR_AXIS":"6925.354","OBJECT_ID":"2021-027BG","RA_OF_ASC_NODE":"209.2475","SITE":"AFETR","LAUNCH_DATE":"2021-04-07","EPHEMERIS_TYPE":"0","TLE_LINE2":"2 48146  53.0530 209.2475 0002039  50.4404 309.6765 15.06398256 89852","OBJECT_TYPE":"PAYLOAD","COUNTRY_CODE":"US","DECAY_DATE":null,"TIME_SYSTEM":"UTC","MEAN_MOTION":"15.06398256","MEAN_MOTION_DOT":"0.00000691","APOAPSIS":"548.631","BSTAR":"0.00006529200000","NORAD_CAT_ID":"48146","CLASSIFICATION_TYPE":"U","REF_FRAME":"TEME"},{"EPOCH":"2022-11-14T19:29:29.554368","TLE_LINE1":"1 48147U 21027BH  22318.81214762  .00000506  00000-0  52872-4 0  9992","MEAN_ANOMALY":"315.8320","MEAN_ELEMENT_THEORY":"SGP4","RCS_SIZE":"LARGE","MEAN_MOTION_DDOT":"0.0000000000000","RA_OF_ASC_NODE":"212.4690","SITE":"AFETR","LAUNCH_DATE":"2021-04-07","SEMIMAJOR_AXIS":"6925.362","OBJECT_ID":"2021-027BH","OBJECT_NAME":"STARLINK-2490","INCLINATION":"53.0535","FILE":"3656014","ARG_OF_PERICENTER":"44.2829","REV_AT_EPOCH":"8984","ELEMENT_SET_NO":"999","ECCENTRICITY":"0.00019970","CENTER_NAME":"EARTH","PERIOD":"95.592","GP_ID":"217784230","PERIAPSIS":"545.844","APOAPSIS":"548.610","MEAN_MOTION_DOT":"0.00000506","REF_FRAME":"TEME","NORAD_CAT_ID":"48147","CLASSIFICATION_TYPE":"U","BSTAR":"0.00005287200000","TLE_LINE2":"2 48147  53.0535 212.4690 0001997  44.2829 315.8320 15.06395514 89846","EPHEMERIS_TYPE":"0","MEAN_MOTION":"15.06395514","OBJECT_TYPE":"PAYLOAD","COUNTRY_CODE":"US","TIME_SYSTEM":"UTC","DECAY_DATE":null},{"MEAN_MOTION":"15.06390554","TIME_SYSTEM":"UTC","DECAY_DATE":null,"COUNTRY_CODE":"US","OBJECT_TYPE":"PAYLOAD","TLE_LINE2":"2 48148  53.0528 207.2928 0001790  65.2874 294.8301 15.06390554 89900","EPHEMERIS_TYPE":"0","CLASSIFICATION_TYPE":"U","REF_FRAME":"TEME","NORAD_CAT_ID":"48148","BSTAR":"0.00007239900000","APOAPSIS":"548.482","MEAN_MOTION_DOT":"0.00000797","GP_ID":"217784481","PERIOD":"95.593","PERIAPSIS":"546.003","FILE":"3656014","INCLINATION":"53.0528","OBJECT_NAME":"STARLINK-2491","ELEMENT_SET_NO":"999","ECCENTRICITY":"0.00017900","CENTER_NAME":"EARTH","REV_AT_EPOCH":"8990","ARG_OF_PERICENTER":"65.2874","LAUNCH_DATE":"2021-04-07","SITE":"AFETR","RA_OF_ASC_NODE":"207.2928","SEMIMAJOR_AXIS":"6925.378","OBJECT_ID":"2021-027BJ","MEAN_ANOMALY":"294.8301","TLE_LINE1":"1 48148U 21027BJ  22318.84763663  .00000797  00000-0  72399-4 0  9993","EPOCH":"2022-11-14T20:20:35.804832","MEAN_MOTION_DDOT":"0.0000000000000","RCS_SIZE":"LARGE","MEAN_ELEMENT_THEORY":"SGP4"},{"OBJECT_TYPE":"PAYLOAD","COUNTRY_CODE":"US","DECAY_DATE":null,"TIME_SYSTEM":"UTC","MEAN_MOTION":"15.06397594","EPHEMERIS_TYPE":"0","TLE_LINE2":"2 48149  53.0529 187.2493 0001783  58.9944 301.1220 15.06397594 90191","BSTAR":"0.00067264000000","CLASSIFICATION_TYPE":"U","REF_FRAME":"TEME","NORAD_CAT_ID":"48149","MEAN_MOTION_DOT":"0.00009751","APOAPSIS":"548.456","PERIAPSIS":"545.986","PERIOD":"95.592","GP_ID":"217785213","ARG_OF_PERICENTER":"58.9944","REV_AT_EPOCH":"9019","ELEMENT_SET_NO":"999","ECCENTRICITY":"0.00017830","CENTER_NAME":"EARTH","OBJECT_NAME":"STARLINK-2492","FILE":"3656014","INCLINATION":"53.0529","SEMIMAJOR_AXIS":"6925.356","OBJECT_ID":"2021-027BK","RA_OF_ASC_NODE":"187.2493","SITE":"AFETR","LAUNCH_DATE":"2021-04-07","MEAN_ELEMENT_THEORY":"SGP4","RCS_SIZE":"LARGE","MEAN_MOTION_DDOT":"0.0000000000000","EPOCH":"2022-11-14T20:39:10.710432","TLE_LINE1":"1 48149U 21027BK  22318.86054063  .00009751  00000-0  67264-3 0  9996","MEAN_ANOMALY":"301.1220"},{"SITE":"AFETR","RA_OF_ASC_NODE":"186.9216","LAUNCH_DATE":"2021-04-07","OBJECT_ID":"2021-027BL","SEMIMAJOR_AXIS":"6925.389","TLE_LINE1":"1 48150U 21027BL  22318.93055793 -.00002114  00000-0 -12311-3 0  9998","EPOCH":"2022-11-14T22:20:00.205152","MEAN_ANOMALY":"303.1667","RCS_SIZE":"LARGE","MEAN_ELEMENT_THEORY":"SGP4","MEAN_MOTION_DDOT":"0.0000000000000","PERIOD":"95.593","GP_ID":"217790877","PERIAPSIS":"546.015","OBJECT_NAME":"STARLINK-2493","INCLINATION":"53.0528","FILE":"3656104","ARG_OF_PERICENTER":"56.9493","ELEMENT_SET_NO":"999","ECCENTRICITY":"0.00017880","CENTER_NAME":"EARTH","REV_AT_EPOCH":"8981","NORAD_CAT_ID":"48150","CLASSIFICATION_TYPE":"U","REF_FRAME":"TEME","BSTAR":"-0.00012311000000","APOAPSIS":"548.492","MEAN_MOTION_DOT":"-0.00002114","MEAN_MOTION":"15.06386946","COUNTRY_CODE":"US","OBJECT_TYPE":"PAYLOAD","DECAY_DATE":null,"TIME_SYSTEM":"UTC","TLE_LINE2":"2 48150  53.0528 186.9216 0001788  56.9493 303.1667 15.06386946 89816","EPHEMERIS_TYPE":"0"},{"OBJECT_TYPE":"PAYLOAD","COUNTRY_CODE":"US","DECAY_DATE":null,"TIME_SYSTEM":"UTC","MEAN_MOTION":"15.06375752","EPHEMERIS_TYPE":"0","TLE_LINE2":"2 48151  53.0534 187.5147 0001983  56.0856 304.0321 15.06375752 90198","BSTAR":"0.00050411000000","CLASSIFICATION_TYPE":"U","REF_FRAME":"TEME","NORAD_CAT_ID":"48151","MEAN_MOTION_DOT":"0.00007230","APOAPSIS":"548.661","PERIAPSIS":"545.915","PERIOD":"95.594","GP_ID":"217783730","ARG_OF_PERICENTER":"56.0856","REV_AT_EPOCH":"9019","ELEMENT_SET_NO":"999","CENTER_NAME":"EARTH","ECCENTRICITY":"0.00019830","OBJECT_NAME":"STARLINK-2503","INCLINATION":"53.0534","FILE":"3656014","OBJECT_ID":"2021-027BM","SEMIMAJOR_AXIS":"6925.423","RA_OF_ASC_NODE":"187.5147","SITE":"AFETR","LAUNCH_DATE":"2021-04-07","MEAN_ELEMENT_THEORY":"SGP4","RCS_SIZE":"MEDIUM","MEAN_MOTION_DDOT":"0.0000000000000","EPOCH":"2022-11-14T19:14:15.819072","TLE_LINE1":"1 48151U 21027BM  22318.80157198  .00007230  00000-0  50411-3 0  9992","MEAN_ANOMALY":"304.0321"},{"ARG_OF_PERICENTER":"85.8680","REV_AT_EPOCH":"8629","ELEMENT_SET_NO":"999","ECCENTRICITY":"0.00012790","CENTER_NAME":"EARTH","OBJECT_NAME":"STARLINK-2567","FILE":"3656014","INCLINATION":"53.0564","PERIAPSIS":"546.361","PERIOD":"95.593","GP_ID":"217784243","MEAN_ELEMENT_THEORY":"SGP4","RCS_SIZE":"LARGE","MEAN_MOTION_DDOT":"0.0000000000000","EPOCH":"2022-11-14T18:37:45.197184","TLE_LINE1":"1 48276U 21036A   22318.77621756 -.00002087  00000-0 -12130-3 0  9995","MEAN_ANOMALY":"274.2455","OBJECT_ID":"2021-036A","SEMIMAJOR_AXIS":"6925.382","SITE":"AFETR","RA_OF_ASC_NODE":"82.6332","LAUNCH_DATE":"2021-04-29","EPHEMERIS_TYPE":"0","TLE_LINE2":"2 48276  53.0564  82.6332 0001279  85.8680 274.2455 15.06389037 86296","OBJECT_TYPE":"PAYLOAD","COUNTRY_CODE":"US","TIME_SYSTEM":"UTC","DECAY_DATE":null,"MEAN_MOTION":"15.06389037","MEAN_MOTION_DOT":"-0.00002087","APOAPSIS":"548.133","BSTAR":"-0.00012130000000","CLASSIFICATION_TYPE":"U","NORAD_CAT_ID":"48276","REF_FRAME":"TEME"},{"TLE_LINE2":"2 48277  53.0566  47.6252 0001242 101.5162 258.5967 15.06401918 86782","EPHEMERIS_TYPE":"0","MEAN_MOTION":"15.06401918","OBJECT_TYPE":"PAYLOAD","COUNTRY_CODE":"US","DECAY_DATE":null,"TIME_SYSTEM":"UTC","APOAPSIS":"548.068","MEAN_MOTION_DOT":"-0.00001309","NORAD_CAT_ID":"48277","CLASSIFICATION_TYPE":"U","REF_FRAME":"TEME","BSTAR":"-0.00006898600000","OBJECT_NAME":"STARLINK-2569","INCLINATION":"53.0566","FILE":"3656014","ARG_OF_PERICENTER":"101.5162","REV_AT_EPOCH":"8678","ELEMENT_SET_NO":"999","ECCENTRICITY":"0.00012420","CENTER_NAME":"EARTH","PERIOD":"95.592","GP_ID":"217784494","PERIAPSIS":"546.348","EPOCH":"2022-11-14T18:39:44.195904","TLE_LINE1":"1 48277U 21036B   22318.77759486 -.00001309  00000-0 -68986-4 0  9995","MEAN_ANOMALY":"258.5967","MEAN_ELEMENT_THEORY":"SGP4","RCS_SIZE":"LARGE","MEAN_MOTION_DDOT":"0.0000000000000","SITE":"AFETR","RA_OF_ASC_NODE":"47.6252","LAUNCH_DATE":"2021-04-29","OBJECT_ID":"2021-036B","SEMIMAJOR_AXIS":"6925.343"},{"PERIAPSIS":"546.267","PERIOD":"95.592","GP_ID":"217785226","ARG_OF_PERICENTER":"99.3002","REV_AT_EPOCH":"8654","ELEMENT_SET_NO":"999","ECCENTRICITY":"0.00013480","CENTER_NAME":"EARTH","OBJECT_NAME":"STARLINK-2543","FILE":"3656014","INCLINATION":"53.0561","SEMIMAJOR_AXIS":"6925.335","OBJECT_ID":"2021-036C","SITE":"AFETR","RA_OF_ASC_NODE":"63.4159","LAUNCH_DATE":"2021-04-29","MEAN_ELEMENT_THEORY":"SGP4","RCS_SIZE":"LARGE","MEAN_MOTION_DDOT":"0.0000000000000","EPOCH":"2022-11-14T14:46:52.330944","TLE_LINE1":"1 48278U 21036C   22318.61588346  .00000693  00000-0  65438-4 0  9996","MEAN_ANOMALY":"260.8139","OBJECT_TYPE":"PAYLOAD","COUNTRY_CODE":"US","DECAY_DATE":null,"TIME_SYSTEM":"UTC","MEAN_MOTION":"15.06404407","EPHEMERIS_TYPE":"0","TLE_LINE2":"2 48278  53.0561  63.4159 0001348  99.3002 260.8139 15.06404407 86541","BSTAR":"0.00006543800000","CLASSIFICATION_TYPE":"U","NORAD_CAT_ID":"48278","REF_FRAME":"TEME","MEAN_MOTION_DOT":"0.00000693","APOAPSIS":"548.134"},{"MEAN_MOTION_DOT":"0.00000152","APOAPSIS":"548.135","BSTAR":"0.00002906700000","REF_FRAME":"TEME","CLASSIFICATION_TYPE":"U","NORAD_CAT_ID":"48279","EPHEMERIS_TYPE":"0","TLE_LINE2":"2 48279  53.0553  63.0758 0001362  83.4227 276.6917 15.06407155 86556","OBJECT_TYPE":"PAYLOAD","COUNTRY_CODE":"US","DECAY_DATE":null,"TIME_SYSTEM":"UTC","MEAN_MOTION":"15.06407155","MEAN_ELEMENT_THEORY":"SGP4","RCS_SIZE":"LARGE","MEAN_MOTION_DDOT":"0.0000000000000","EPOCH":"2022-11-14T16:11:46.345344","TLE_LINE1":"1 48279U 21036D   22318.67484196  .00000152  00000-0  29067-4 0  9999","MEAN_ANOMALY":"276.6917","SEMIMAJOR_AXIS":"6925.327","OBJECT_ID":"2021-036D","SITE":"AFETR","RA_OF_ASC_NODE":"63.0758","LAUNCH_DATE":"2021-04-29","ARG_OF_PERICENTER":"83.4227","REV_AT_EPOCH":"8655","ELEMENT_SET_NO":"999","ECCENTRICITY":"0.00013620","CENTER_NAME":"EARTH","OBJECT_NAME":"STARLINK-2580","FILE":"3656014","INCLINATION":"53.0553","PERIAPSIS":"546.248","PERIOD":"95.592","GP_ID":"217783493"}];
